XRISM                   
1 57800U 23137A   23323.19442910  .00003184  00000+0  25226-3 0  9994
2 57800  31.0041 272.8622 0010496 278.6962  81.2484 14.98635347 10985
